[{"OBJECT_NAME":"CSTP 1.2 (STC 1.2)","OBJECT_ID":"2023-091W","EPOCH":"2026-03-09T23:12:27.821952","MEAN_MOTION":15.2718076,"ECCENTRICITY":0.00204388,"INCLINATION":97.5258,"RA_OF_ASC_NODE":134.3262,"ARG_OF_PERICENTER":84.9592,"MEAN_ANOMALY":275.3979,"EPHEMERIS_TYPE":0,"CLASSIFICATION_TYPE":"U","NORAD_CAT_ID":57186,"ELEMENT_SET_NO":999,"REV_AT_EPOCH":14930,"BSTAR":0.00043035718,"MEAN_MOTION_DOT":0.00011466,"MEAN_MOTION_DDOT":0},{"OBJECT_NAME":"STARLINK-31753","OBJECT_ID":"2024-071A","EPOCH":"2026-03-09T03:49:42.020832","MEAN_MOTION":15.27589882,"ECCENTRICITY":0.00022227,"INCLINATION":43.0044,"RA_OF_ASC_NODE":342.8115,"ARG_OF_PERICENTER":258.3159,"MEAN_ANOMALY":101.7443,"EPHEMERIS_TYPE":0,"CLASSIFICATION_TYPE":"U","NORAD_CAT_ID":59484,"ELEMENT_SET_NO":999,"REV_AT_EPOCH":10812,"BSTAR":-4.5806096e-5,"MEAN_MOTION_DOT":-1.523e-5,"MEAN_MOTION_DDOT":0}]
